STARLINK-2315           
1 47789U 21018C   26068.76161000  .00000500  00000+0  52453-4 0  9997
2 47789  53.0561 231.2942 0001314 123.9087 236.2027 15.06403769276894
CHUANGXIN 16A (CX-16A)  
1 53586U 22102A   26068.83297444  .00003128  00000+0  20134-3 0  9993
2 53586  28.9941 256.1289 0005063  43.7318 316.3682 15.05552649194538
