[{"OBJECT_NAME":"STARLINK-2315","OBJECT_ID":"2021-018C","EPOCH":"2026-03-09T18:16:43.104864","MEAN_MOTION":15.06403769,"ECCENTRICITY":0.00013144,"INCLINATION":53.0561,"RA_OF_ASC_NODE":231.2942,"ARG_OF_PERICENTER":123.9087,"MEAN_ANOMALY":236.2027,"EPHEMERIS_TYPE":0,"CLASSIFICATION_TYPE":"U","NORAD_CAT_ID":47789,"ELEMENT_SET_NO":999,"REV_AT_EPOCH":27689,"BSTAR":5.2453172e-5,"MEAN_MOTION_DOT":5.0e-6,"MEAN_MOTION_DDOT":0},{"OBJECT_NAME":"CHUANGXIN 16A (CX-16A)","OBJECT_ID":"2022-102A","EPOCH":"2026-03-09T19:59:28.991616","MEAN_MOTION":15.05552649,"ECCENTRICITY":0.0005063,"INCLINATION":28.9941,"RA_OF_ASC_NODE":256.1289,"ARG_OF_PERICENTER":43.7318,"MEAN_ANOMALY":316.3682,"EPHEMERIS_TYPE":0,"CLASSIFICATION_TYPE":"U","NORAD_CAT_ID":53586,"ELEMENT_SET_NO":999,"REV_AT_EPOCH":19453,"BSTAR":0.00020134,"MEAN_MOTION_DOT":3.128e-5,"MEAN_MOTION_DDOT":0}]
